start=new Date('2023-07-02T00:00:00.000Z').valueOf();
sats=[{"MEAN_MOTION_DDOT":"0.0000000000000","BSTAR":"0.00027814000000","REV_AT_EPOCH":"19210","MEAN_ELEMENT_THEORY":"SGP4","ELEMENT_SET_NO":"999","EPHEMERIS_TYPE":"0","RCS_SIZE":"LARGE","NORAD_CAT_ID":"44939","OBJECT_TYPE":"PAYLOAD","ARG_OF_PERICENTER":"90.2025","REF_FRAME":"TEME","ECCENTRICITY":"0.00012050","OBJECT_ID":"2020-001AB","TIME_SYSTEM":"UTC","OBJECT_NAME":"STARLINK-1083","RA_OF_ASC_NODE":"55.2242","INCLINATION":"53.0547","APOAPSIS":"548.030","TLE_LINE2":"2 44939  53.0547  55.2242 0001205  90.2025 269.9102 15.06406001192106","CENTER_NAME":"EARTH","GP_ID":"234659045","FILE":"3947136","DECAY_DATE":null,"EPOCH":"2023-07-01T15:16:07.956480","PERIAPSIS":"546.361","LAUNCH_DATE":"2020-01-07","MEAN_MOTION":"15.06406001","MEAN_ANOMALY":"269.9102","MEAN_MOTION_DOT":"0.00003865","COUNTRY_CODE":"US","TLE_LINE1":"1 44939U 20001AB  23182.63620320  .00003865  00000-0  27814-3 0  9997","SEMIMAJOR_AXIS":"6925.330","CLASSIFICATION_TYPE":"U","SITE":"AFETR","PERIOD":"95.592"},{"SITE":"AFETR","PERIOD":"95.593","TLE_LINE1":"1 44940U 20001AC  23181.65205946  .00000191  00000-0  31734-4 0  9999","SEMIMAJOR_AXIS":"6925.367","CLASSIFICATION_TYPE":"U","MEAN_MOTION_DOT":"0.00000191","COUNTRY_CODE":"US","LAUNCH_DATE":"2020-01-07","MEAN_MOTION":"15.06394082","MEAN_ANOMALY":"271.4562","CENTER_NAME":"EARTH","DECAY_DATE":null,"GP_ID":"234637766","FILE":"3946269","EPOCH":"2023-06-30T15:38:57.937344","PERIAPSIS":"546.142","RA_OF_ASC_NODE":"59.6443","INCLINATION":"53.0545","APOAPSIS":"548.321","TLE_LINE2":"2 44940  53.0545  59.6443 0001573  88.6608 271.4562 15.06394082191958","OBJECT_NAME":"STARLINK-1091","REF_FRAME":"TEME","OBJECT_ID":"2020-001AC","ECCENTRICITY":"0.00015730","TIME_SYSTEM":"UTC","OBJECT_TYPE":"PAYLOAD","ARG_OF_PERICENTER":"88.6608","NORAD_CAT_ID":"44940","RCS_SIZE":"LARGE","ELEMENT_SET_NO":"999","EPHEMERIS_TYPE":"0","MEAN_ELEMENT_THEORY":"SGP4","MEAN_MOTION_DDOT":"0.0000000000000","BSTAR":"0.00003173400000","REV_AT_EPOCH":"19195"},{"NORAD_CAT_ID":"44941","TIME_SYSTEM":"UTC","ECCENTRICITY":"0.00011790","OBJECT_ID":"2020-001AD","REF_FRAME":"TEME","ARG_OF_PERICENTER":"86.8086","OBJECT_TYPE":"PAYLOAD","MEAN_ELEMENT_THEORY":"SGP4","REV_AT_EPOCH":"19202","BSTAR":"0.00044686000000","MEAN_MOTION_DDOT":"0.0000000000000","RCS_SIZE":"LARGE","EPHEMERIS_TYPE":"0","ELEMENT_SET_NO":"999","COUNTRY_CODE":"US","MEAN_MOTION_DOT":"0.00006381","MEAN_ANOMALY":"273.3038","MEAN_MOTION":"15.06399362","LAUNCH_DATE":"2020-01-07","PERIOD":"95.592","SITE":"AFETR","CLASSIFICATION_TYPE":"U","TLE_LINE1":"1 44941U 20001AD  23182.07225965  .00006381  00000-0  44686-3 0  9996","SEMIMAJOR_AXIS":"6925.351","TLE_LINE2":"2 44941  53.0547  57.7569 0001179  86.8086 273.3038 15.06399362192025","APOAPSIS":"548.032","RA_OF_ASC_NODE":"57.7569","INCLINATION":"53.0547","OBJECT_NAME":"STARLINK-1094","PERIAPSIS":"546.399","EPOCH":"2023-07-01T01:44:03.233760","FILE":"3946588","GP_ID":"234645592","DECAY_DATE":null,"CENTER_NAME":"EARTH"},{"RCS_SIZE":"LARGE","EPHEMERIS_TYPE":"0","ELEMENT_SET_NO":"999","MEAN_ELEMENT_THEORY":"SGP4","MEAN_MOTION_DDOT":"0.0000000000000","REV_AT_EPOCH":"19242","BSTAR":"0.00023729000000","OBJECT_ID":"2020-001AE","ECCENTRICITY":"0.00023540","REF_FRAME":"TEME","TIME_SYSTEM":"UTC","ARG_OF_PERICENTER":"349.0670","OBJECT_TYPE":"PAYLOAD","NORAD_CAT_ID":"44942","GP_ID":"234659083","FILE":"3947138","DECAY_DATE":null,"CENTER_NAME":"EARTH","PERIAPSIS":"499.987","EPOCH":"2023-07-01T17:57:37.161792","RA_OF_ASC_NODE":"34.1175","INCLINATION":"53.0614","TLE_LINE2":"2 44942  53.0614  34.1175 0002354 349.0670  11.0274 15.21404109192428","APOAPSIS":"503.226","OBJECT_NAME":"STARLINK-1096","SITE":"AFETR","PERIOD":"94.649","SEMIMAJOR_AXIS":"6879.741","TLE_LINE1":"1 44942U 20001AE  23182.74834678  .00005068  00000-0  23729-3 0  9994","CLASSIFICATION_TYPE":"U","MEAN_MOTION_DOT":"0.00005068","COUNTRY_CODE":"US","MEAN_MOTION":"15.21404109","LAUNCH_DATE":"2020-01-07","MEAN_ANOMALY":"11.0274"},{"RCS_SIZE":"LARGE","EPHEMERIS_TYPE":"0","ELEMENT_SET_NO":"999","MEAN_ELEMENT_THEORY":"SGP4","REV_AT_EPOCH":"19211","BSTAR":"0.00022399000000","MEAN_MOTION_DDOT":"0.0000000000000","TIME_SYSTEM":"UTC","ECCENTRICITY":"0.00015790","OBJECT_ID":"2020-001AF","REF_FRAME":"TEME","ARG_OF_PERICENTER":"90.4560","OBJECT_TYPE":"PAYLOAD","NORAD_CAT_ID":"44943","PERIAPSIS":"546.104","EPOCH":"2023-07-01T16:46:21.896256","GP_ID":"234659080","FILE":"3947138","DECAY_DATE":null,"CENTER_NAME":"EARTH","TLE_LINE2":"2 44943  53.0560  54.9434 0001579  90.4560 269.6610 15.06405357192110","APOAPSIS":"548.291","RA_OF_ASC_NODE":"54.9434","INCLINATION":"53.0560","OBJECT_NAME":"STARLINK-1100","PERIOD":"95.592","SITE":"AFETR","CLASSIFICATION_TYPE":"U","SEMIMAJOR_AXIS":"6925.332","TLE_LINE1":"1 44943U 20001AF  23182.69886454  .00003057  00000-0  22399-3 0  9996","COUNTRY_CODE":"US","MEAN_MOTION_DOT":"0.00003057","MEAN_ANOMALY":"269.6610","MEAN_MOTION":"15.06405357","LAUNCH_DATE":"2020-01-07"},{"MEAN_ANOMALY":"267.8029","MEAN_MOTION":"15.06395369","LAUNCH_DATE":"2020-01-07","COUNTRY_CODE":"US","MEAN_MOTION_DOT":"0.00007869","CLASSIFICATION_TYPE":"U","SEMIMAJOR_AXIS":"6925.363","TLE_LINE1":"1 44944U 20001AG  23182.34870421  .00007869  00000-0  54661-3 0  9998","PERIOD":"95.592","SITE":"AFETR","OBJECT_NAME":"STARLINK-1108","TLE_LINE2":"2 44944  53.0550  56.5163 0001275  92.3106 267.8029 15.06395369192066","APOAPSIS":"548.111","INCLINATION":"53.0550","RA_OF_ASC_NODE":"56.5163","PERIAPSIS":"546.345","EPOCH":"2023-07-01T08:22:08.043744","GP_ID":"234652118","DECAY_DATE":null,"FILE":"3946859","CENTER_NAME":"EARTH","NORAD_CAT_ID":"44944","ARG_OF_PERICENTER":"92.3106","OBJECT_TYPE":"PAYLOAD","TIME_SYSTEM":"UTC","ECCENTRICITY":"0.00012750","OBJECT_ID":"2020-001AG","REF_FRAME":"TEME","REV_AT_EPOCH":"19206","BSTAR":"0.00054661000000","MEAN_MOTION_DDOT":"0.0000000000000","MEAN_ELEMENT_THEORY":"SGP4","EPHEMERIS_TYPE":"0","ELEMENT_SET_NO":"999","RCS_SIZE":"LARGE"},{"COUNTRY_CODE":"US","MEAN_MOTION_DOT":"0.00004263","MEAN_ANOMALY":"273.6038","LAUNCH_DATE":"2020-01-07","MEAN_MOTION":"15.06386075","PERIOD":"95.593","SITE":"AFETR","CLASSIFICATION_TYPE":"U","TLE_LINE1":"1 44945U 20001AH  23181.64837275  .00004263  00000-0  30499-3 0  9999","SEMIMAJOR_AXIS":"6925.391","APOAPSIS":"548.321","TLE_LINE2":"2 44945  53.0544  59.6644 0001538  86.5127 273.6038 15.06386075191954","INCLINATION":"53.0544","RA_OF_ASC_NODE":"59.6644","OBJECT_NAME":"STARLINK-1109","EPOCH":"2023-06-30T15:33:39.405600","PERIAPSIS":"546.191","CENTER_NAME":"EARTH","GP_ID":"234638306","FILE":"3946286","DECAY_DATE":null,"NORAD_CAT_ID":"44945","TIME_SYSTEM":"UTC","REF_FRAME":"TEME","ECCENTRICITY":"0.00015380","OBJECT_ID":"2020-001AH","OBJECT_TYPE":"PAYLOAD","ARG_OF_PERICENTER":"86.5127","MEAN_ELEMENT_THEORY":"SGP4","BSTAR":"0.00030499000000","REV_AT_EPOCH":"19195","MEAN_MOTION_DDOT":"0.0000000000000","RCS_SIZE":"LARGE","ELEMENT_SET_NO":"999","EPHEMERIS_TYPE":"0"},{"ELEMENT_SET_NO":"999","EPHEMERIS_TYPE":"0","RCS_SIZE":"LARGE","BSTAR":"0.00194840000000","REV_AT_EPOCH":"19294","MEAN_MOTION_DDOT":"0.0000000000000","MEAN_ELEMENT_THEORY":"SGP4","OBJECT_TYPE":"PAYLOAD","ARG_OF_PERICENTER":"109.8432","TIME_SYSTEM":"UTC","REF_FRAME":"TEME","ECCENTRICITY":"0.00055030","OBJECT_ID":"2020-001AJ","NORAD_CAT_ID":"44946","EPOCH":"2023-07-01T18:17:54.433248","PERIAPSIS":"437.181","CENTER_NAME":"EARTH","GP_ID":"234656927","DECAY_DATE":null,"FILE":"3947037","OBJECT_NAME":"STARLINK-1110","APOAPSIS":"444.686","TLE_LINE2":"2 44946  53.0173 353.0505 0005503 109.8432 250.3166 15.41754317192945","RA_OF_ASC_NODE":"353.0505","INCLINATION":"53.0173","CLASSIFICATION_TYPE":"U","SEMIMAJOR_AXIS":"6819.069","TLE_LINE1":"1 44946U 20001AJ  23182.76243557  .00084201  00000-0  19484-2 0  9998","PERIOD":"93.400","SITE":"AFETR","MEAN_ANOMALY":"250.3166","LAUNCH_DATE":"2020-01-07","MEAN_MOTION":"15.41754317","COUNTRY_CODE":"US","MEAN_MOTION_DOT":"0.00084201"},{"NORAD_CAT_ID":"44949","OBJECT_TYPE":"PAYLOAD","ARG_OF_PERICENTER":"87.3158","TIME_SYSTEM":"UTC","REF_FRAME":"TEME","ECCENTRICITY":"0.00011100","OBJECT_ID":"2020-001AM","BSTAR":"0.00012503000000","REV_AT_EPOCH":"19201","MEAN_MOTION_DDOT":"0.0000000000000","MEAN_ELEMENT_THEORY":"SGP4","ELEMENT_SET_NO":"999","EPHEMERIS_TYPE":"0","RCS_SIZE":"LARGE","MEAN_ANOMALY":"272.7958","LAUNCH_DATE":"2020-01-07","MEAN_MOTION":"15.06393612","COUNTRY_CODE":"US","MEAN_MOTION_DOT":"0.00001581","CLASSIFICATION_TYPE":"U","TLE_LINE1":"1 44949U 20001AM  23182.02801856  .00001581  00000-0  12503-3 0  9998","SEMIMAJOR_AXIS":"6925.368","PERIOD":"95.593","SITE":"AFETR","OBJECT_NAME":"STARLINK-1122","APOAPSIS":"548.002","TLE_LINE2":"2 44949  53.0543  57.9557 0001110  87.3158 272.7958 15.06393612192014","RA_OF_ASC_NODE":"57.9557","INCLINATION":"53.0543","EPOCH":"2023-07-01T00:40:20.803584","PERIAPSIS":"546.464","CENTER_NAME":"EARTH","GP_ID":"234645663","DECAY_DATE":null,"FILE":"3946582"},{"FILE":"3947156","GP_ID":"234659136","DECAY_DATE":null,"CENTER_NAME":"EARTH","PERIAPSIS":"306.187","EPOCH":"2023-07-01T18:19:58.432800","RA_OF_ASC_NODE":"1.5981","INCLINATION":"53.0395","TLE_LINE2":"2 44950  53.0395   1.5981 0015446 283.5078  76.4224 15.84928751192878","APOAPSIS":"326.868","OBJECT_NAME":"STARLINK-1125","SITE":"AFETR","PERIOD":"90.856","SEMIMAJOR_AXIS":"6694.662","TLE_LINE1":"1 44950U 20001AN  23182.76387075  .00999221  00000-0  37139-2 0  9991","CLASSIFICATION_TYPE":"U","MEAN_MOTION_DOT":"0.00999221","COUNTRY_CODE":"US","MEAN_MOTION":"15.84928751","LAUNCH_DATE":"2020-01-07","MEAN_ANOMALY":"76.4224","RCS_SIZE":"LARGE","EPHEMERIS_TYPE":"0","ELEMENT_SET_NO":"999","MEAN_ELEMENT_THEORY":"SGP4","MEAN_MOTION_DDOT":"0.0000000000000","REV_AT_EPOCH":"19287","BSTAR":"0.00371390000000","ECCENTRICITY":"0.00154460","OBJECT_ID":"2020-001AN","REF_FRAME":"TEME","TIME_SYSTEM":"UTC","ARG_OF_PERICENTER":"283.5078","OBJECT_TYPE":"PAYLOAD","NORAD_CAT_ID":"44950"}];
